      2.10          N: GNSS NAV DATA                        RINEX VERSION / TYPE
fic2rin                                 09/24/2018 00:22:33 PGM / RUN BY / DATE
                                                            END OF HEADER
14 18  9 23  4  0  0.0-9.716115891933e-05 2.273736754432e-13 0.000000000000e+00
    8.600000000000e+01 5.753125000000e+01 4.582690887470e-09-1.531878564365e+00
    3.188848495483e-06 1.004868687596e-02 9.113922715187e-06 5.153630346298e+03
    1.440000000000e+04 2.104789018631e-07-2.709692667519e+00 1.788139343262e-07
    9.611440406272e-01 2.014687500000e+02-1.942878499614e+00-7.982832517017e-09
    6.228830884380e-10 1.000000000000e+00 2.020000000000e+03 0.000000000000e+00
    2.400000000000e+00 0.000000000000e+00-9.778887033463e-09 8.600000000000e+01
    7.206000000000e+03 4.000000000000e+00
11 18  9 23  4  0  0.0-7.158652879298e-04 2.955857780762e-12 0.000000000000e+00
    6.800000000000e+01 6.968750000000e+01 5.856672525347e-09 2.182074977027e+00
    3.509223461151e-06 1.701469137333e-02 1.775100827217e-06 5.153656681061e+03
    1.440000000000e+04 2.123415470123e-07 9.718952933058e-01 1.676380634308e-08
    9.065044512062e-01 3.098437500000e+02 1.819578231137e+00-8.763579323969e-09
    1.285767843106e-10 1.000000000000e+00 2.020000000000e+03 0.000000000000e+00
    2.400000000000e+00 0.000000000000e+00-1.210719347000e-08 6.800000000000e+01
    7.206000000000e+03 4.000000000000e+00
29 18  9 23  4  0  0.0 3.711013123393e-04-7.389644451905e-12 0.000000000000e+00
    1.700000000000e+01 9.159375000000e+01 3.946950120601e-09-6.886400096948e-01
    4.705041646957e-06 7.856440497562e-04 8.078292012215e-06 5.153629419327e+03
    1.440000000000e+04 2.421438694000e-08 4.162112780818e-01 7.823109626770e-08
    9.848104329646e-01 2.361562500000e+02 1.619100832860e+00-7.830326164515e-09
    3.039412318009e-10 1.000000000000e+00 2.020000000000e+03 0.000000000000e+00
    2.400000000000e+00 0.000000000000e+00-1.024454832077e-08 1.700000000000e+01
    7.206000000000e+03 4.000000000000e+00
24 18  9 23  4  0  0.0-5.576154217124e-05-5.684341886081e-13 0.000000000000e+00
    4.200000000000e+01-5.937500000000e-01 5.488085743657e-09-3.080972233740e+00
   -9.126961231232e-08 7.283877814189e-03 3.833323717117e-06 5.153621129990e+03
    1.440000000000e+04-1.080334186554e-07-1.784809550150e+00-1.266598701477e-07
    9.402450006812e-01 2.962500000000e+02 5.350012881968e-01-8.514283225500e-09
   -1.928651764659e-11 1.000000000000e+00 2.020000000000e+03 0.000000000000e+00
    2.400000000000e+00 0.000000000000e+00 2.793967723846e-09 4.200000000000e+01
    7.206000000000e+03 4.000000000000e+00
25 18  9 23  4  0  0.0-6.511188112199e-04-5.684341886081e-12 0.000000000000e+00
    2.100000000000e+01-2.271875000000e+01 4.237676516237e-09 1.189416048547e+00
   -1.145526766777e-06 7.463027955964e-03 1.060217618942e-05 5.153591714859e+03
    1.440000000000e+04-7.078051567078e-08-6.888475685119e-01 1.378357410431e-07
    9.731103755074e-01 1.824062500000e+02 8.601375055282e-01-7.921401386735e-09
   -5.178787145843e-10 1.000000000000e+00 2.020000000000e+03 0.000000000000e+00
    2.400000000000e+00 0.000000000000e+00 5.587935447693e-09 2.100000000000e+01
    7.206000000000e+03 4.000000000000e+00
23 18  9 23  4  0  0.0-2.102814614773e-04 7.958078640513e-13 0.000000000000e+00
    2.200000000000e+01 4.871875000000e+01 4.839130140623e-09-2.638917028778e+00
    2.207234501839e-06 1.263841090258e-02 9.993091225624e-06 5.153731798172e+03
    1.440000000000e+04 1.732259988785e-07-2.803204194924e+00-2.142041921616e-07
    9.438250552677e-01 1.780625000000e+02-2.327408604333e+00-7.998190299587e-09
    6.443125524897e-10 1.000000000000e+00 2.020000000000e+03 0.000000000000e+00
    2.400000000000e+00 0.000000000000e+00-2.002343535423e-08 2.200000000000e+01
    7.206000000000e+03 4.000000000000e+00
27 18  9 23  4  0  0.0 3.421860747039e-04-3.865352482535e-12 0.000000000000e+00
    2.500000000000e+01 9.828125000000e+01 3.993023468312e-09-1.256164958461e+00
    5.085021257401e-06 6.043747300282e-03 9.074807167053e-06 5.153696613312e+03
    1.440000000000e+04 1.434236764908e-07 3.507410492697e-01-1.098960638046e-07
    9.781588897069e-01 2.162500000000e+02 4.522625315326e-01-7.833183426389e-09
    2.903692379014e-10 1.000000000000e+00 2.020000000000e+03 0.000000000000e+00
    2.400000000000e+00 0.000000000000e+00 1.862645149231e-09 2.500000000000e+01
    7.206000000000e+03 4.000000000000e+00
28 18  9 23  4  0  0.0 7.459572516382e-04 2.160049916711e-12 0.000000000000e+00
    2.000000000000e+01-2.053125000000e+01 4.014452932364e-09-3.521133147043e-01
   -1.000240445137e-06 1.956336665899e-02 1.109391450882e-05 5.153689874649e+03
    1.440000000000e+04-2.570450305939e-07-6.045789638034e-01 5.215406417847e-08
    9.849118248908e-01 1.832812500000e+02-1.512962388454e+00-8.048549540109e-09
   -3.796586714504e-10 1.000000000000e+00 2.020000000000e+03 0.000000000000e+00
    2.400000000000e+00 0.000000000000e+00-1.117587089539e-08 2.000000000000e+01
    7.206000000000e+03 4.000000000000e+00
21 18  9 23  4  0  0.0-3.327014856040e-04 6.025402399246e-12 0.000000000000e+00
    9.600000000000e+01-1.415625000000e+01 5.361294748017e-09 1.070551632955e+00
   -1.249834895134e-06 2.436475793365e-02 2.693384885788e-06 5.153617679596e+03
    1.440000000000e+04-3.371387720108e-07 1.349306516810e+00-4.507601261139e-07
    9.449433639755e-01 3.254375000000e+02-1.526158652691e+00-9.015375526578e-09
   -9.143237995420e-11 1.000000000000e+00 2.020000000000e+03 0.000000000000e+00
    2.400000000000e+00 0.000000000000e+00-1.024454832077e-08 9.600000000000e+01
    7.206000000000e+03 4.000000000000e+00
19 18  9 23  4  0  0.0-4.001758061349e-04 3.524291969370e-12 0.000000000000e+00
    7.200000000000e+01 8.234375000000e+01 4.033025134542e-09 1.493643010375e+00
    3.978610038757e-06 9.649559273385e-03 8.180737495422e-06 5.153602457047e+03
    1.440000000000e+04-1.378357410431e-07 4.521686911895e-01-1.695007085800e-07
    9.810624763443e-01 2.377500000000e+02 1.289643203799e+00-7.915686862988e-09
    2.128660095809e-10 1.000000000000e+00 2.020000000000e+03 0.000000000000e+00
    2.400000000000e+00 0.000000000000e+00-1.536682248116e-08 7.200000000000e+01
    7.206000000000e+03 4.000000000000e+00
32 18  9 23  4  0  0.0-4.154839552939e-04 1.159605744760e-11 0.000000000000e+00
    6.300000000000e+01 4.909375000000e+01 4.644836333220e-09-5.176665559871e-01
    2.659857273102e-06 2.309736795723e-03 9.965151548386e-06 5.153709806442e+03
    1.440000000000e+04 5.215406417847e-08-2.794915128462e+00 7.078051567078e-08
    9.573451890870e-01 1.864687500000e+02-2.553153255961e+00-8.060692903071e-09
    5.935961542339e-10 1.000000000000e+00 2.020000000000e+03 0.000000000000e+00
    2.400000000000e+00 0.000000000000e+00 4.656612873077e-10 6.300000000000e+01
    7.206000000000e+03 4.000000000000e+00
26 18  9 23  4  0  0.0-1.201406121254e-05 1.148237060988e-11 0.000000000000e+00
    8.900000000000e+01-3.059375000000e+01 4.610192033003e-09 6.613934062387e-01
   -1.581385731697e-06 2.943885396235e-03 1.052953302860e-05 5.153727149963e+03
    1.440000000000e+04 3.166496753693e-08-7.129239085310e-01-3.352761268616e-08
    9.545446986753e-01 1.685937500000e+02 5.407753922086e-02-8.072479108300e-09
   -5.982392047784e-10 1.000000000000e+00 2.020000000000e+03 0.000000000000e+00
    3.400000000000e+00 0.000000000000e+00 7.450580596924e-09 8.900000000000e+01
    7.206000000000e+03 4.000000000000e+00
16 18  9 23  4  0  0.0 7.712282240391e-06-1.818989403546e-12 0.000000000000e+00
    7.600000000000e+01-1.690625000000e+01 3.858375002520e-09-2.884057749039e-01
   -9.238719940186e-07 1.001462817658e-02 1.149624586105e-05 5.153703516006e+03
    1.440000000000e+04 5.960464477539e-08-6.087296968810e-01 9.685754776001e-08
    9.860137693970e-01 1.698750000000e+02 5.198074605243e-01-7.775323873449e-09
   -5.285934466102e-10 1.000000000000e+00 2.020000000000e+03 0.000000000000e+00
    2.400000000000e+00 0.000000000000e+00-1.071020960808e-08 7.600000000000e+01
    7.206000000000e+03 4.000000000000e+00
12 18  9 23  4  0  0.0 3.049694932997e-04-2.728484105319e-12 0.000000000000e+00
    6.900000000000e+01-2.121875000000e+01 3.811230181606e-09 1.601777015482e+00
   -1.229345798492e-06 7.013960625045e-03 1.108273863792e-05 5.153774152756e+03
    1.440000000000e+04-1.769512891769e-07-6.276336574268e-01-3.725290298462e-08
    9.855958532005e-01 1.803437500000e+02 1.023188072873e+00-7.635675199378e-09
   -4.478757986819e-10 1.000000000000e+00 2.020000000000e+03 0.000000000000e+00
    2.400000000000e+00 0.000000000000e+00-1.257285475731e-08 6.900000000000e+01
    7.206000000000e+03 4.000000000000e+00
10 18  9 23  4  0  0.0 1.801350153983e-04-2.614797267597e-12 0.000000000000e+00
    7.600000000000e+01-8.665625000000e+01 4.234462096629e-09 8.516595046597e-01
   -4.500150680542e-06 3.812645096332e-03 1.062639057636e-05 5.153673686981e+03
    1.440000000000e+04-2.793967723846e-08 2.446596130252e+00 1.005828380585e-07
    9.618785088894e-01 1.755000000000e+02-2.804506948343e+00-7.949259690002e-09
   -2.353669468352e-10 1.000000000000e+00 2.020000000000e+03 0.000000000000e+00
    2.400000000000e+00 0.000000000000e+00 1.862645149231e-09 7.600000000000e+01
    7.206000000000e+03 4.000000000000e+00
 9 18  9 23  4  0  0.0 5.049407482147e-04-2.160049916711e-12 0.000000000000e+00
    8.700000000000e+01 4.378125000000e+01 4.730554189427e-09-8.431675358494e-01
    2.223998308182e-06 1.046077930368e-03 9.933486580849e-06 5.153541843414e+03
    1.440000000000e+04 7.450580596924e-09-2.800455298707e+00-1.862645149231e-08
    9.530086376179e-01 1.891875000000e+02 1.744235300710e+00-8.074979212439e-09
    5.610948004220e-10 1.000000000000e+00 2.020000000000e+03 0.000000000000e+00
    2.400000000000e+00 0.000000000000e+00 9.313225746155e-10 8.700000000000e+01
    7.206000000000e+03 4.000000000000e+00
